{
  "constellation": "oneweb",
  "timestamp": "2025-07-21T05:06:13.717346+00:00",
  "satellite_count": 651,
  "data": [
    {
      "satellite_name": "ONEWEB-0461",
      "catalog_number": 51649,
      "epoch_year": 2025,
      "epoch_day": 201.38802341,
      "first_derivative": 6.6e-07,
      "second_derivative": 0.0,
      "drag_term": 0.0,
      "inclination": 87.9038,
      "right_ascension": 71.8903,
      "eccentricity": 0.0001737,
      "argument_of_perigee": 77.4216,
      "mean_anomaly": 282.711,
      "mean_motion": 13.17648626,
      "revolution_number": 17019,
      "line1": "1 51649U 22012AD  25201.38802341  .00000066  00000+0  13692-3 0  9996",
      "line2": "2 51649  87.9038  71.8903 0001737  77.4216 282.7110 13.17648626170198",
      "last_updated": "2025-07-21T05:06:13.714654+00:00",
      "constellation": "oneweb"
    },
    {
      "satellite_name": "ONEWEB-0463",
      "catalog_number": 51650,
      "epoch_year": 2025,
      "epoch_day": 201.59727342,
      "first_derivative": 2.7e-07,
      "second_derivative": 0.0,
      "drag_term": 0.0,
      "inclination": 87.9039,
      "right_ascension": 71.9127,
      "eccentricity": 0.0001769,
      "argument_of_perigee": 82.9802,
      "mean_anomaly": 277.153,
      "mean_motion": 13.17649118,
      "revolution_number": 17000,
      "line1": "1 51650U 22012AE  25201.59727342  .00000027  00000+0  36059-4 0  9998",
      "line2": "2 51650  87.9039  71.9127 0001769  82.9802 277.1530 13.17649118170008",
      "last_updated": "2025-07-21T05:06:13.714657+00:00",
      "constellation": "oneweb"
    },
    {
      "satellite_name": "ONEWEB-0464",
      "catalog_number": 51651,
      "epoch_year": 2025,
      "epoch_day": 201.48866572,
      "first_derivative": 5.91e-06,
      "second_derivative": 0.0,
      "drag_term": 0.0,
      "inclination": 87.8819,
      "right_ascension": 102.4444,
      "eccentricity": 0.0002199,
      "argument_of_perigee": 76.0257,
      "mean_anomaly": 284.1115,
      "mean_motion": 13.10371864,
      "revolution_number": 16588,
      "line1": "1 51651U 22012AF  25201.48866572  .00000591  00000+0  16562-2 0  9997",
      "line2": "2 51651  87.8819 102.4444 0002199  76.0257 284.1115 13.10371864165882",
      "last_updated": "2025-07-21T05:06:13.714659+00:00",
      "constellation": "oneweb"
    },
    {
      "satellite_name": "ONEWEB-0468",
      "catalog_number": 51652,
      "epoch_year": 2025,
      "epoch_day": 201.41893841,
      "first_derivative": 4.01e-06,
      "second_derivative": 0.0,
      "drag_term": 0.0,
      "inclination": 87.8815,
      "right_ascension": 102.45,
      "eccentricity": 0.0001934,
      "argument_of_perigee": 78.1521,
      "mean_anomaly": 281.9823,
      "mean_motion": 13.10371805,
      "revolution_number": 16585,
      "line1": "1 51652U 22012AG  25201.41893841  .00000401  00000+0  11117-2 0  9991",
      "line2": "2 51652  87.8815 102.4500 0001934  78.1521 281.9823 13.10371805165858",
      "last_updated": "2025-07-21T05:06:13.714661+00:00",
      "constellation": "oneweb"
    },
    {
      "satellite_name": "ONEWEB-0473",
      "catalog_number": 51653,
      "epoch_year": 2025,
      "epoch_day": 201.48036833,
      "first_derivative": 5.76e-06,
      "second_derivative": 0.0,
      "drag_term": 0.0,
      "inclination": 87.8819,
      "right_ascension": 102.4412,
      "eccentricity": 0.0001949,
      "argument_of_perigee": 79.9896,
      "mean_anomaly": 280.1451,
      "mean_motion": 13.10374404,
      "revolution_number": 16586,
      "line1": "1 51653U 22012AH  25201.48036833  .00000576  00000+0  16123-2 0  9994",
      "line2": "2 51653  87.8819 102.4412 0001949  79.9896 280.1451 13.10374404165862",
      "last_updated": "2025-07-21T05:06:13.714663+00:00",
      "constellation": "oneweb"
    },
    {
      "satellite_name": "ONEWEB-0474",
      "catalog_number": 51654,
      "epoch_year": 2025,
      "epoch_day": 201.47206648,
      "first_derivative": 4.23e-06,
      "second_derivative": 0.0,
      "drag_term": 0.0,
      "inclination": 87.882,
      "right_ascension": 102.4029,
      "eccentricity": 0.0002108,
      "argument_of_perigee": 79.8694,
      "mean_anomaly": 280.2671,
      "mean_motion": 13.10375895,
      "revolution_number": 16585,
      "line1": "1 51654U 22012AJ  25201.47206648  .00000423  00000+0  11752-2 0  9991",
      "line2": "2 51654  87.8820 102.4029 0002108  79.8694 280.2671 13.10375895165851",
      "last_updated": "2025-07-21T05:06:13.714665+00:00",
      "constellation": "oneweb"
    },
    {
      "satellite_name": "ONEWEB-0475",
      "catalog_number": 51655,
      "epoch_year": 2025,
      "epoch_day": 201.91283487,
      "first_derivative": 4e-08,
      "second_derivative": 0.0,
      "drag_term": -2.2894e-05,
      "inclination": 87.9045,
      "right_ascension": 71.8298,
      "eccentricity": 0.0002402,
      "argument_of_perigee": 96.2472,
      "mean_anomaly": 263.8933,
      "mean_motion": 13.17648304,
      "revolution_number": 17135,
      "line1": "1 51655U 22012AK  25201.91283487  .00000004  00000+0 -22894-4 0  9994",
      "line2": "2 51655  87.9045  71.8298 0002402  96.2472 263.8933 13.17648304171358",
      "last_updated": "2025-07-21T05:06:13.714667+00:00",
      "constellation": "oneweb"
    },
    {
      "satellite_name": "ONEWEB-0490",
      "catalog_number": 54113,
      "epoch_year": 2025,
      "epoch_day": 201.51192034,
      "first_derivative": 9e-07,
      "second_derivative": 0.0,
      "drag_term": 0.0,
      "inclination": 87.9218,
      "right_ascension": 10.8812,
      "eccentricity": 0.0002051,
      "argument_of_perigee": 89.7829,
      "mean_anomaly": 270.3538,
      "mean_motion": 13.19726086,
      "revolution_number": 13308,
      "line1": "1 54113U 22138A   25201.51192034  .00000090  00000+0  19166-3 0  9999",
      "line2": "2 54113  87.9218  10.8812 0002051  89.7829 270.3538 13.19726086133088",
      "last_updated": "2025-07-21T05:06:13.714669+00:00",
      "constellation": "oneweb"
    },
    {
      "satellite_name": "ONEWEB-0492",
      "catalog_number": 54114,
      "epoch_year": 2025,
      "epoch_day": 201.46139073,
      "first_derivative": -2.8e-07,
      "second_derivative": 0.0,
      "drag_term": -0.00010274,
      "inclination": 87.9221,
      "right_ascension": 10.9155,
      "eccentricity": 0.0001937,
      "argument_of_perigee": 85.7036,
      "mean_anomaly": 274.4318,
      "mean_motion": 13.19724304,
      "revolution_number": 13308,
      "line1": "1 54114U 22138B   25201.46139073 -.00000028  00000+0 -10274-3 0  9992",
      "line2": "2 54114  87.9221  10.9155 0001937  85.7036 274.4318 13.19724304133084",
      "last_updated": "2025-07-21T05:06:13.714671+00:00",
      "constellation": "oneweb"
    },
    {
      "satellite_name": "ONEWEB-0495",
      "catalog_number": 54115,
      "epoch_year": 2025,
      "epoch_day": 201.51509753,
      "first_derivative": 2.8e-07,
      "second_derivative": 0.0,
      "drag_term": 0.0,
      "inclination": 87.9221,
      "right_ascension": 10.9162,
      "eccentricity": 0.0002545,
      "argument_of_perigee": 87.9915,
      "mean_anomaly": 272.1509,
      "mean_motion": 13.19730248,
      "revolution_number": 13307,
      "line1": "1 54115U 22138C   25201.51509753  .00000028  00000+0  38194-4 0  9995",
      "line2": "2 54115  87.9221  10.9162 0002545  87.9915 272.1509 13.19730248133079",
      "last_updated": "2025-07-21T05:06:13.714673+00:00",
      "constellation": "oneweb"
    },
    {
      "satellite_name": "ONEWEB-0497",
      "catalog_number": 54116,
      "epoch_year": 2025,
      "epoch_day": 201.45190947,
      "first_derivative": 2.2e-07,
      "second_derivative": 0.0,
      "drag_term": 0.0,
      "inclination": 87.922,
      "right_ascension": 10.8997,
      "eccentricity": 0.0001953,
      "argument_of_perigee": 92.1037,
      "mean_anomaly": 268.032,
      "mean_motion": 13.19725901,
      "revolution_number": 13305,
      "line1": "1 54116U 22138D   25201.45190947  .00000022  00000+0  22666-4 0  9991",
      "line2": "2 54116  87.9220  10.8997 0001953  92.1037 268.0320 13.19725901133052",
      "last_updated": "2025-07-21T05:06:13.714676+00:00",
      "constellation": "oneweb"
    },
    {
      "satellite_name": "ONEWEB-0499",
      "catalog_number": 54117,
      "epoch_year": 2025,
      "epoch_day": 201.51035898,
      "first_derivative": 4.5e-07,
      "second_derivative": 0.0,
      "drag_term": 0.0,
      "inclination": 87.9221,
      "right_ascension": 10.9072,
      "eccentricity": 0.0002065,
      "argument_of_perigee": 100.4783,
      "mean_anomaly": 259.6582,
      "mean_motion": 13.1972423,
      "revolution_number": 13307,
      "line1": "1 54117U 22138E   25201.51035898  .00000045  00000+0  80140-4 0  9998",
      "line2": "2 54117  87.9221  10.9072 0002065 100.4783 259.6582 13.19724230133077",
      "last_updated": "2025-07-21T05:06:13.714678+00:00",
      "constellation": "oneweb"
    },
    {
      "satellite_name": "ONEWEB-0500",
      "catalog_number": 54118,
      "epoch_year": 2025,
      "epoch_day": 201.51350917,
      "first_derivative": 1.23e-06,
      "second_derivative": 0.0,
      "drag_term": 0.0,
      "inclination": 87.9222,
      "right_ascension": 10.8905,
      "eccentricity": 0.0001822,
      "argument_of_perigee": 90.2048,
      "mean_anomaly": 269.9293,
      "mean_motion": 13.19725695,
      "revolution_number": 13308,
      "line1": "1 54118U 22138F   25201.51350917  .00000123  00000+0  27550-3 0  9993",
      "line2": "2 54118  87.9222  10.8905 0001822  90.2048 269.9293 13.19725695133083",
      "last_updated": "2025-07-21T05:06:13.714680+00:00",
      "constellation": "oneweb"
    }
  ]
}